[
  {
    "OBJECT_NAME": "STARLINK-11644 [DTC]",
    "OBJECT_ID": "25085J",
    "EPOCH": "2025-11-11T05:55:51.547296",
    "MEAN_MOTION": 15.70918086,
    "ECCENTRICITY": 0.0001899,
    "INCLINATION": 42.9983,
    "RA_OF_ASC_NODE": 272.3712,
    "ARG_OF_PERICENTER": 270.3873,
    "MEAN_ANOMALY": 89.6777,
    "EPHEMERIS_TYPE": 0,
    "CLASSIFICATION_TYPE": "U",
    "NORAD_CAT_ID": 63672,
    "ELEMENT_SET_NO": 999,
    "REV_AT_EPOCH": 3161,
    "BSTAR": 0.0013761000000000001,
    "MEAN_MOTION_DOT": 0.00180603,
    "MEAN_MOTION_DDOT": 0.0,
    "TLE_LINE1": "1 63672U 25085J   25315.24712439  .00180603  00000+0  13761-2 0  9999",
    "TLE_LINE2": "2 63672  42.9983 272.3712 0001899 270.3873  89.6777 15.70918086 31612",
    "COMMENT": "Grouped by shell and plane from TLE"
  },
  {
    "OBJECT_NAME": "STARLINK-11634 [DTC]",
    "OBJECT_ID": "25085K",
    "EPOCH": "2025-11-11T05:48:13.384512",
    "MEAN_MOTION": 15.7096406,
    "ECCENTRICITY": 0.0001757,
    "INCLINATION": 43.0001,
    "RA_OF_ASC_NODE": 272.3277,
    "ARG_OF_PERICENTER": 297.4982,
    "MEAN_ANOMALY": 62.5707,
    "EPHEMERIS_TYPE": 0,
    "CLASSIFICATION_TYPE": "U",
    "NORAD_CAT_ID": 63673,
    "ELEMENT_SET_NO": 999,
    "REV_AT_EPOCH": 3161,
    "BSTAR": 0.0034404,
    "MEAN_MOTION_DOT": 0.00469299,
    "MEAN_MOTION_DDOT": 0.0,
    "TLE_LINE1": "1 63673U 25085K   25315.24182158  .00469299  00000+0  34404-2 0  9997",
    "TLE_LINE2": "2 63673  43.0001 272.3277 0001757 297.4982  62.5707 15.70964060 31612",
    "COMMENT": "Grouped by shell and plane from TLE"
  },
  {
    "OBJECT_NAME": "STARLINK-11656 [DTC]",
    "OBJECT_ID": "25085L",
    "EPOCH": "2025-11-11T05:40:34.150368",
    "MEAN_MOTION": 15.70914068,
    "ECCENTRICITY": 0.000171,
    "INCLINATION": 42.9986,
    "RA_OF_ASC_NODE": 272.2846,
    "ARG_OF_PERICENTER": 262.408,
    "MEAN_ANOMALY": 97.6593,
    "EPHEMERIS_TYPE": 0,
    "CLASSIFICATION_TYPE": "U",
    "NORAD_CAT_ID": 63674,
    "ELEMENT_SET_NO": 999,
    "REV_AT_EPOCH": 3161,
    "BSTAR": 0.0013174,
    "MEAN_MOTION_DOT": 0.00172685,
    "MEAN_MOTION_DDOT": 0.0,
    "TLE_LINE1": "1 63674U 25085L   25315.23650637  .00172685  00000+0  13174-2 0  9990",
    "TLE_LINE2": "2 63674  42.9986 272.2846 0001710 262.4080  97.6593 15.70914068 31619",
    "COMMENT": "Grouped by shell and plane from TLE"
  },
  {
    "OBJECT_NAME": "STARLINK-11655 [DTC]",
    "OBJECT_ID": "25085M",
    "EPOCH": "2025-11-11T05:32:54.969792",
    "MEAN_MOTION": 15.70994215,
    "ECCENTRICITY": 0.0004425,
    "INCLINATION": 42.9985,
    "RA_OF_ASC_NODE": 272.2419,
    "ARG_OF_PERICENTER": 248.8474,
    "MEAN_ANOMALY": 111.1921,
    "EPHEMERIS_TYPE": 0,
    "CLASSIFICATION_TYPE": "U",
    "NORAD_CAT_ID": 63675,
    "ELEMENT_SET_NO": 999,
    "REV_AT_EPOCH": 3161,
    "BSTAR": 0.0020951,
    "MEAN_MOTION_DOT": 0.00279486,
    "MEAN_MOTION_DDOT": 0.0,
    "TLE_LINE1": "1 63675U 25085M   25315.23119178  .00279486  00000+0  20951-2 0  9999",
    "TLE_LINE2": "2 63675  42.9985 272.2419 0004425 248.8474 111.1921 15.70994215 31615",
    "COMMENT": "Grouped by shell and plane from TLE"
  },
  {
    "OBJECT_NAME": "STARLINK-11661 [DTC]",
    "OBJECT_ID": "25085N",
    "EPOCH": "2025-11-11T06:56:50.720352",
    "MEAN_MOTION": 15.70930273,
    "ECCENTRICITY": 0.0001756,
    "INCLINATION": 42.999,
    "RA_OF_ASC_NODE": 271.8158,
    "ARG_OF_PERICENTER": 296.896,
    "MEAN_ANOMALY": 63.1728,
    "EPHEMERIS_TYPE": 0,
    "CLASSIFICATION_TYPE": "U",
    "NORAD_CAT_ID": 63676,
    "ELEMENT_SET_NO": 999,
    "REV_AT_EPOCH": 3227,
    "BSTAR": 0.0031894000000000002,
    "MEAN_MOTION_DOT": 0.0043246,
    "MEAN_MOTION_DDOT": 0.0,
    "TLE_LINE1": "1 63676U 25085N   25315.28947593  .00432460  00000+0  31894-2 0  9996",
    "TLE_LINE2": "2 63676  42.9990 271.8158 0001756 296.8960  63.1728 15.70930273 32272",
    "COMMENT": "Grouped by shell and plane from TLE"
  }
]